CELESTIS-02             
1 25160U 98007D   16138.51737292 -.00000040  00000-0  40074-4 0  9997
2 25160 107.9494 118.8907 0064070 317.6034 147.7475 14.21431172947332
CELESTIS-03             
1 26034U 99070C   16139.16686276  .00004857  00000-0  35027-3 0  9996
2 26034  98.3026 296.1810 0015148  46.6602 313.5882 15.04580486886019
